satname,norad_id,inclination_deg,eccentricity,mean_motion_rev_per_day,perigee_km,apogee_km,l1,l2
STARLINK-1361,45567,53.0544,0.0001424,15.06395,546.2407104436988,548.2130540773678,1 45567U 20025AN  25297.81358098 -.00000252  00000+0  20110-5 0  9991,2 45567  53.0544 336.5890 0001424  87.4079 272.7073 15.06395000304891
STARLINK-1363,45568,53.0558,0.0001176,15.31186895,471.46435378365186,473.07556950103117,1 45568U 20025AP  25297.83336806  .01699087  00000+0  50248-1 0  9998,2 45568  53.0558 335.5907 0001176  61.7594 199.4067 15.31186895  5834
STARLINK-1366,45569,53.0533,0.0001395,15.34676005,460.92883533794156,462.8372009229988,1 45569U 20025AQ  25297.83336806  .01944896  00000+0  51722-1 0  9998,2 45569  53.0533 335.0507 0001395 110.3774   2.2738 15.34676005  5817
STARLINK-1376,45570,53.0555,0.0001385,15.06414043,546.2093636858808,548.127673314506,1 45570U 20025AR  25297.41181087  .00001631  00000+0  12831-3 0  9993,2 45570  53.0555 338.3952 0001385  94.4433 265.6714 15.06414043304829
STARLINK-1320,45572,53.0593,0.0009371,15.41141075,436.34856819482866,449.1322566411827,1 45572U 20025AT  25297.65548194  .00083736  00000+0  19759-2 0  9998,2 45572  53.0593 282.3678 0009371 347.8694  12.2084 15.41141075305652
STARLINK-1321,45573,53.0554,0.0001309,15.0640516,546.2892172704942,548.1022693826981,1 45573U 20025AU  25297.79607789  .00000469  00000+0  50397-4 0  9997,2 45573  53.0554 326.6704 0001309  93.9275 266.1864 15.06405160304721
STARLINK-1328,45576,53.0523,0.0009964,15.65356725,365.4869696127771,378.9390671293877,1 45576U 20025AX  25297.83336806  .00215733  00000+0  20715-2 0  9995,2 45576  53.0523 305.6893 0009964  10.6724  44.7133 15.65356725  5663
STARLINK-1331,45578,53.0547,0.0001625,15.06395238,546.100781308538,548.3515243332049,1 45578U 20025AZ  25297.77396676 -.00002168  00000+0 -12673-3 0  9994,2 45578  53.0547 326.7685 0001625  94.1503 265.9671 15.06395238305037
STARLINK-1333,45580,53.0562,0.0001604,15.06404393,546.0872703096193,548.3089178077935,1 45580U 20025BB  25297.51502728  .00001056  00000+0  89749-4 0  9998,2 45580  53.0562 337.9280 0001604  92.4275 267.6897 15.06404393304846
STARLINK-1335,45581,53.0547,0.0001568,15.06395958,546.1380495174726,548.309842710174,1 45581U 20025BC  25297.78501786  .00001441  00000+0  11566-3 0  9990,2 45581  53.0547 326.7193 0001568  80.6545 279.4621 15.06395958305020
STARLINK-1337,45582,53.0544,0.0001339,15.06399481,546.285844214086,548.1404529838819,1 45582U 20025BD  25297.80712919  .00001689  00000+0  13228-3 0  9997,2 45582  53.0544 326.6209 0001339  84.7638 275.3504 15.06399481305029
STARLINK-1347,45586,53.0552,0.0005977,15.30180487,471.1770489835799,479.3696156948581,1 45586U 20025BH  25297.46834630  .00088989  00000+0  29813-2 0  9992,2 45586  53.0552 314.8642 0005977 323.7158  36.3436 15.30180487305151
STARLINK-1360,45588,53.0456,0.0005994,15.73684562,344.34514775873686,352.40889276622875,1 45588U 20025BK  25297.85245984  .00114289  00000+0  79032-3 0  9997,2 45588  53.0456 233.8105 0005994  98.4839 261.6859 15.73684562306334
STARLINK-1364,45589,53.0556,0.0001659,15.0640162,546.0576783739916,548.355507378109,1 45589U 20025BL  25297.41274933  .00003235  00000+0  23597-3 0  9999,2 45589  53.0556 328.3934 0001659  97.5267 262.5910 15.06401620304968
STARLINK-1365,45590,53.0551,0.0001377,15.06401793,546.2524429172399,548.1596823966966,1 45590U 20025BM  25297.56110299  .00000357  00000+0  42857-4 0  9994,2 45590  53.0551 357.7224 0001377  91.4170 268.6977 15.06401793304585
STARLINK-1443,45660,53.0554,0.0001255,15.06399486,546.3440018329711,548.0822647164223,1 45660U 20035D   25297.54634955 -.00002767  00000+0 -16692-3 0  9997,2 45660  53.0554 317.7910 0001255 100.1765 259.9366 15.06399486298219
STARLINK-1446,45663,53.0274,0.0001119,15.32861685,466.51325778527735,468.0452619442358,1 45663U 20035G   25297.67538522  .00026276  00000+0  82498-3 0  9993,2 45663  53.0274 281.4221 0001119 355.1214   4.9775 15.32861685298736
STARLINK-1448,45665,53.0545,0.0001261,15.06400602,546.3364266750987,548.0829991160899,1 45665U 20035J   25297.74908154  .00001577  00000+0  12474-3 0  9999,2 45665  53.0545 316.8777 0001261  97.0723 263.0409 15.06400602298239
STARLINK-1451,45668,53.0545,0.0001365,15.0639253,546.2891393037426,548.1797657102761,1 45668U 20035M   25297.75281259  .00001304  00000+0  10643-3 0  9997,2 45668  53.0545 317.1811 0001365  95.5105 264.6040 15.06392530298246
STARLINK-1452,45669,53.0401,0.0010289,15.25653241,481.75915987482585,495.88999340723876,1 45669U 20035N   25297.42083743  .00036873  00000+0  14344-2 0  9990,2 45669  53.0401 300.6127 0010289 351.0622   9.0191 15.25653241298444
STARLINK-1453,45670,53.0524,0.0001096,15.06399267,546.4547860304456,547.9728229267885,1 45670U 20035P   25297.69655729  .00000464  00000+0  50067-4 0  9991,2 45670  53.0524 287.1184 0001096  91.1587 268.9527 15.06399267298546
STARLINK-1454,45671,53.0546,0.0001401,15.06399372,546.2432410658757,548.1837242711199,1 45671U 20035Q   25297.77488383 -.00000775  00000+0 -33161-4 0  9994,2 45671  53.0546 316.7654 0001401  84.9664 275.1485 15.06399372298234
STARLINK-1456,45673,53.0548,0.0001496,15.06395158,546.1903636463103,548.262432374996,1 45673U 20035S   25297.78962823  .00003809  00000+0  27451-3 0  9996,2 45673  53.0548 316.6991 0001496  91.5812 268.5348 15.06395158298258
STARLINK-1457,45674,53.0538,0.0001465,15.0642888,546.1084957150606,548.1375969086303,1 45674U 20035T   25297.79697654  .00005149  00000+0  36402-3 0  9990,2 45674  53.0538 316.6649 0001465 111.5826 248.5319 15.06428880298224
STARLINK-1458,45675,53.0544,0.0001323,15.06412974,546.2555764287126,548.0880131358108,1 45675U 20035U   25297.65326081  .00009735  00000+0  67132-3 0  9998,2 45675  53.0544 317.3091 0001323  90.4961 269.6180 15.06412974298192
STARLINK-1460,45676,53.0546,0.0001411,15.06401874,546.2286485330242,548.1829802752491,1 45676U 20035V   25297.75644705  .00000576  00000+0  57572-4 0  9998,2 45676  53.0546 316.8456 0001411  87.4431 272.6719 15.06401874298201
STARLINK-1392,45677,53.055,0.0001449,15.06397409,546.216014834783,548.2229831481909,1 45677U 20035W   25297.43577845 -.00001194  00000+0 -61298-4 0  9993,2 45677  53.0550 318.2887 0001449  88.7170 271.3985 15.06397409298193
STARLINK-1394,45679,53.0542,0.0001274,15.06397908,546.3356794012643,548.1002598475252,1 45679U 20035Y   25297.43301359  .00001804  00000+0  13997-3 0  9998,2 45679  53.0542 308.3024 0001274 122.0705 238.0408 15.06397908298331
STARLINK-1402,45685,53.0534,0.0001487,15.22835178,496.27130083562133,498.31605391907306,1 45685U 20035AE  25297.83336806  .00058580  00000+0  24657-2 0  9991,2 45685  53.0534 300.1335 0001487  88.8901 164.0251 15.22835178  5825
STARLINK-1404,45686,53.0535,0.0001403,15.06400348,546.2388651155652,548.1821176216436,1 45686U 20035AF  25297.32612207 -.00003245  00000+0 -19904-3 0  9998,2 45686  53.0535 308.7768 0001403  78.3776 281.7371 15.06400348298321
STARLINK-1413,45689,53.0545,0.0001672,15.06412551,546.0151793507857,548.3310030452822,1 45689U 20035AJ  25297.74263168  .00009812  00000+0  67648-3 0  9997,2 45689  53.0545 306.9066 0001672  88.1485 271.9696 15.06412551298296
STARLINK-1417,45693,53.0543,0.0001455,15.06397719,546.2109096512122,548.2261881159366,1 45693U 20035AN  25297.34086499 -.00000953  00000+0 -45114-4 0  9992,2 45693  53.0543 308.7138 0001455  88.7616 271.3539 15.06397719298311
STARLINK-1420,45695,53.0538,0.0001558,15.06400754,546.1302780925489,548.2882159831252,1 45695U 20035AQ  25297.67349782  .00001365  00000+0  11053-3 0  9997,2 45695  53.0538 287.2095 0001558  78.2806 281.8358 15.06400754298655
STARLINK-1422,45696,53.0537,0.0001322,15.06401803,546.2905016596369,548.1215623572989,1 45696U 20035AR  25297.75001647  .00003523  00000+0  25526-3 0  9990,2 45696  53.0537 306.8782 0001322  95.4353 264.6787 15.06401803298373
STARLINK-1351,45697,53.0545,0.0001445,15.06393931,546.229443057211,548.230874166049,1 45697U 20035AS  25297.39431666 -.00000254  00000+0  18628-5 0  9995,2 45697  53.0545 288.4744 0001445  94.4310 265.6844 15.06393931298618
STARLINK-1398,45699,53.0507,0.0003369,15.49415594,416.1447803182318,420.72431022543515,1 45699U 20035AU  25297.83336806  .00206051  00000+0  36019-2 0  9999,2 45699  53.0507 248.2416 0003369  79.2033  52.1940 15.49415594  5921
STARLINK-1400,45700,53.0547,0.0001595,15.0640202,546.100774828602,548.309959043655,1 45700U 20035AV  25297.70024220  .00000589  00000+0  58405-4 0  9995,2 45700  53.0547 287.1016 0001595  93.9686 266.1485 15.06402020298650
STARLINK-1403,45701,53.0547,0.0001496,15.06391471,546.2016621633575,548.2737342730643,1 45701U 20035AW  25297.26530579 -.00001439  00000+0 -77720-4 0  9994,2 45701  53.0547 289.0516 0001496  98.1359 261.9800 15.06391471298584
STARLINK-1407,45703,53.0405,0.0011197,15.3993466,438.6610287424155,453.94367823061384,1 45703U 20035AY  25297.15714904  .00142129  00000+0  34549-2 0  9990,2 45703  53.0405 249.9318 0011197  28.4852 331.6761 15.39934660299139
STARLINK-1411,45706,53.0541,0.0002207,15.38622569,448.67457662388006,451.68859644797794,1 45706U 20035BB  25297.35627059  .00207984  00000+0  52366-2 0  9997,2 45706  53.0541 276.0689 0002207  98.6571 261.4682 15.38622569298776
STARLINK-1423,45710,53.0533,0.0001266,15.06396012,546.3470299360397,548.1005312856905,1 45710U 20035BF  25297.68918686  .00000152  00000+0  29119-4 0  9997,2 45710  53.0533 287.1511 0001266  90.3784 269.7350 15.06396012298654
STARLINK-1433,45711,53.0544,0.000164,15.06403861,546.0639693318099,548.3354797774646,1 45711U 20035BG  25297.67075060  .00000336  00000+0  41476-4 0  9991,2 45711  53.0544 287.2307 0001640  83.1917 276.9259 15.06403861298643
STARLINK-1434,45712,53.0507,0.0004275,15.14848407,518.4892531291143,524.3883904567474,1 45712U 20035BH  25297.67350903  .00047149  00000+0  25056-2 0  9991,2 45712  53.0507 283.7980 0004275  37.4993 322.6297 15.14848407298700
